HIMAWARI-8              
1 40267U 14060A   24005.80684885 -.00000248  00000+0  00000+0 0  9991
2 40267   0.0362 169.1827 0000951 123.7589 243.0715  1.00270490 33906
